PROBA-1                 
1 26958U 01049B   26193.15970943  .00001936  00000+0  12733-3 0  9990
2 26958  97.9608 202.5649 0055905  39.7466 320.7837 15.07608627347385
CUTE-1 (CO-55)          
1 27844U 03031E   26192.83459775  .00000160  00000+0  88088-4 0  9992
2 27844  98.6741 201.0838 0010755 111.2957 248.9371 14.24350218195186
CUBESAT XI-IV (CO-57)   
1 27848U 03031J   26192.55431067  .00000130  00000+0  76240-4 0  9993
2 27848  98.6772 200.4999 0010408 128.9651 231.2457 14.23633286194846
APRIZESAT 4             
1 35684U 09041D   26193.00425065  .00000360  00000+0  49734-4 0  9992
2 35684  98.1404 268.8187 0042070 240.1403 119.5627 14.83911189915046
APRIZESAT 3             
1 35686U 09041F   26193.10955142  .00001061  00000+0  96411-4 0  9992
2 35686  98.2092 347.5321 0060990 346.1133  13.8407 14.96304711920101
PROBA-2                 
1 36037U 09059B   26192.44940836  .00000104  00000+0  34681-4 0  9990
2 36037  98.2457  15.4667 0012742 200.5903 159.4782 14.54872679885055
APRIZESAT 5             
1 37792U 11044E   26192.80096187  .00000453  00000+0  64640-4 0  9992
2 37792  98.2450 126.5399 0050739 283.9299  75.6273 14.81124114802433
APRIZESAT 6             
1 37793U 11044F   26192.73832200  .00000397  00000+0  63524-4 0  9996
2 37793  98.2343 103.7374 0043339   9.2855  45.5114 14.76953608800777
PROBA-V                 
1 39159U 13021A   26192.85933208  .00000043  00000+0  36884-4 0  9991
2 39159  98.3603 170.2499 0005344  67.7410 292.4336 14.23603107684623
APRIZESAT 7             
1 39416U 13066A   26193.10930022  .00000520  00000+0  56800-4 0  9996
2 39416  97.7721 145.9732 0037032 127.1953 233.2655 14.91615343684946
APRIZESAT 8             
1 39425U 13066K   26192.82605686  .00000423  00000+0  51745-4 0  9994
2 39425  97.8228 139.9521 0045218 203.0906 156.8279 14.87693219683332
BUGSAT-1 (TITA)         
1 40014U 14033E   26193.18853056  .00003713  00000+0  19600-3 0  9999
2 40014  98.0437 287.2036 0029116  95.6437 264.8115 15.15863043659624
SAUDISAT 4              
1 40016U 14033G   26192.87096491  .00000274  00000+0  42891-4 0  9996
2 40016  97.7612 338.1563 0044532 354.9490   5.1267 14.79573545649725
APRIZESAT 9             
1 40018U 14033J   26192.84568323  .00000378  00000+0  62796-4 0  9994
2 40018  97.9089 325.4456 0067338 120.4864 240.3018 14.74249965647194
APRIZESAT 10            
1 40019U 14033K   26192.82052080  .00000330  00000+0  59735-4 0  9998
2 40019  97.9677 319.2345 0078454 194.1474 165.7536 14.70908468645876
TECHDEMOSAT-1 (TDS-1)   
1 40076U 14037H   26192.88518611  .00004272  00000+0  24189-3 0  9991
2 40076  98.3822 187.5538 0006572 169.0701 191.0671 15.13649220651967
TECHNOSAT               
1 42829U 17042E   26192.78247322  .00002304  00000+0  16562-3 0  9995
2 42829  97.4306 349.5090 0017736  14.3873 345.7855 15.05098506490409
FLYING LAPTOP           
1 42831U 17042G   26193.18080456  .00002055  00000+0  16362-3 0  9997
2 42831  97.4789 347.7711 0019827  42.0714 318.2029 15.01300056490200
HAWK-A                  
1 43765U 18099H   26192.95751058  .00004339  00000+0  17431-3 0  9999
2 43765  97.3904 244.8727 0034381 195.3513 164.6685 15.24938254416874
HAWK-B                  
1 43794U 18099AN  26193.07445703  .00003716  00000+0  15858-3 0  9991
2 43794  97.3952 244.3505 0031085 213.2280 146.7006 15.23092911416820
HAWK-C                  
1 43799U 18099AT  26193.00850948  .00004979  00000+0  17834-3 0  9998
2 43799  97.3883 245.9582 0039979 195.1149 164.8899 15.28458113417706
SALSAT                  
1 46495U 20068K   26192.54062004  .00004447  00000+0  15528-3 0  9997
2 46495  97.8855 197.0941 0008823 206.5203 153.5586 15.30139435319080
HAWK-2C                 
1 47502U 21006CT  26193.18787188  .00003972  00000+0  11930-3 0  9993
2 47502  97.2270 237.0013 0008605 109.3431 250.8744 15.34964737303334
HAWK-2A                 
1 47505U 21006CW  26193.19012538  .00004000  00000+0  12009-3 0  9998
2 47505  97.2312 237.6959 0008117 112.5807 247.6296 15.34979714303337
HAWK-2B                 
1 47508U 21006CZ  26192.72761057  .00004605  00000+0  13734-3 0  9993
2 47508  97.2184 235.5351 0008667 112.2337 247.9827 15.35104016303266
HAWK-3B                 
1 48931U 21059BE  26193.04429825  .00031460  00000+0  24510-3 0  9995
2 48931  97.6641  32.1420 0004226 209.9705 150.1316 15.71662815281750
HAWK-3C                 
1 48948U 21059BX  26192.53462930  .00032017  00000+0  24970-3 0  9999
2 48948  97.6752  37.3098 0004248 211.5765 148.5243 15.71633627281678
HAWK-3A                 
1 48957U 21059CG  26192.53451707  .00032665  00000+0  25471-3 0  9995
2 48957  97.6700  34.4950 0004352 212.7236 147.3758 15.71633774281679
HAWK-5C                 
1 52754U 22057Y   26193.19219183  .00011021  00000+0  18323-3 0  9998
2 52754  97.6605 354.4916 0003130 358.8809   1.2435 15.52254010230227
HAWK-5B                 
1 52756U 22057AA  26193.19200291  .00010918  00000+0  18153-3 0  9995
2 52756  97.6621 352.8444 0003753 344.8890  15.2249 15.52251970230221
